{"type":"FeatureCollection","features":[{"type":"Feature","geometry":{"type":"Point","coordinates":[29.17514,-0.69161]},"properties":{"id":"cod-35MQV4223_1","name":"Kanyobagonga","kind":"settlement","population":85298,"controller":"M23 ARC","controller_id":"afc-m23-arc","sovereign":"AFC/M23","color":"#d6604d","status":"dominant","confidence":"medium"}},{"type":"Feature","geometry":{"type":"Point","coordinates":[29.19879,-0.9113]},"properties":{"id":"cod-35MQU4499_2","name":"Cepac","kind":"settlement","population":41168,"controller":"M23 ARC","controller_id":"afc-m23-arc","sovereign":"AFC/M23","color":"#d6604d","status":"dominant","confidence":"medium"}},{"type":"Feature","geometry":{"type":"Point","coordinates":[29.36255,-1.39194]},"properties":{"id":"cod-35MQU6344_1","name":"Nkiko","kind":"settlement","population":35889,"controller":"M23 ARC","controller_id":"afc-m23-arc","sovereign":"AFC/M23","color":"#d6604d","status":"exclusive","confidence":"medium"}},{"type":"Feature","geometry":{"type":"Point","coordinates":[29.54905,-1.28917]},"properties":{"id":"cod-35MQU8356_1","name":"Nyabikoro","kind":"settlement","population":32509,"controller":"M23 ARC","controller_id":"afc-m23-arc","sovereign":"AFC/M23","color":"#d6604d","status":"exclusive","confidence":"medium"}},{"type":"Feature","geometry":{"type":"Point","coordinates":[29.56926,-0.88184]},"properties":{"id":"cod-35MQV8602_1","name":"Chemchem","kind":"settlement","population":31813,"controller":"M23 ARC","controller_id":"afc-m23-arc","sovereign":"AFC/M23","color":"#d6604d","status":"dominant","confidence":"medium"}},{"type":"Feature","geometry":{"type":"Point","coordinates":[29.57276,-1.20616]},"properties":{"id":"cod-35MQU8860_2","name":"Bugogo","kind":"settlement","population":29606,"controller":"M23 ARC","controller_id":"afc-m23-arc","sovereign":"AFC/M23","color":"#d6604d","status":"exclusive","confidence":"medium"}},{"type":"Feature","geometry":{"type":"Point","coordinates":[29.22679,-1.08229]},"properties":{"id":"cod-35MQU4780_1","name":"Bambo Centre","kind":"settlement","population":29029,"controller":"M23 ARC","controller_id":"afc-m23-arc","sovereign":"AFC/M23","color":"#d6604d","status":"dominant","confidence":"medium"}},{"type":"Feature","geometry":{"type":"Point","coordinates":[29.4046,-1.22772]},"properties":{"id":"cod-35MQU6764_1","name":"Munzambaye","kind":"settlement","population":25931,"controller":"M23 ARC","controller_id":"afc-m23-arc","sovereign":"AFC/M23","color":"#d6604d","status":"exclusive","confidence":"medium"}},{"type":"Feature","geometry":{"type":"Point","coordinates":[29.59189,-1.30359]},"properties":{"id":"cod-35MQU8855_1","name":"Buregeya","kind":"settlement","population":25450,"controller":"M23 ARC","controller_id":"afc-m23-arc","sovereign":"AFC/M23","color":"#d6604d","status":"exclusive","confidence":"medium"}},{"type":"Feature","geometry":{"type":"Point","coordinates":[28.99103,-1.05665]},"properties":{"id":"cod-35MQU2183_1","name":"Kashuga Centre","kind":"settlement","population":24787,"controller":"M23 ARC","controller_id":"afc-m23-arc","sovereign":"AFC/M23","color":"#d6604d","status":"contested","confidence":"low"}},{"type":"Feature","geometry":{"type":"Point","coordinates":[29.50507,-0.96104]},"properties":{"id":"cod-35MQU7893_1","name":"Mushumba","kind":"settlement","population":24393,"controller":"M23 ARC","controller_id":"afc-m23-arc","sovereign":"AFC/M23","color":"#d6604d","status":"dominant","confidence":"medium"}},{"type":"Feature","geometry":{"type":"Point","coordinates":[29.11355,-1.02658]},"properties":{"id":"cod-35MQU3586_1","name":"Geneve","kind":"settlement","population":23849,"controller":"M23 ARC","controller_id":"afc-m23-arc","sovereign":"AFC/M23","color":"#d6604d","status":"dominant","confidence":"medium"}},{"type":"Feature","geometry":{"type":"Point","coordinates":[29.39994,-1.34467]},"properties":{"id":"cod-35MQU6550_1","name":"Ngunamo 2","kind":"settlement","population":23263,"controller":"M23 ARC","controller_id":"afc-m23-arc","sovereign":"AFC/M23","color":"#d6604d","status":"exclusive","confidence":"medium"}},{"type":"Feature","geometry":{"type":"Point","coordinates":[29.431,-1.07748]},"properties":{"id":"cod-35MQU7081_1","name":"Lusaka 2","kind":"settlement","population":18926,"controller":"M23 ARC","controller_id":"afc-m23-arc","sovereign":"AFC/M23","color":"#d6604d","status":"exclusive","confidence":"medium"}},{"type":"Feature","geometry":{"type":"Point","coordinates":[29.4401,-1.00622]},"properties":{"id":"cod-35MQU7188_1","name":"Burega","kind":"settlement","population":18673,"controller":"M23 ARC","controller_id":"afc-m23-arc","sovereign":"AFC/M23","color":"#d6604d","status":"dominant","confidence":"medium"}},{"type":"Feature","geometry":{"type":"Point","coordinates":[29.51527,-1.10448]},"properties":{"id":"cod-35MQU7878_1","name":"Rugarama 1","kind":"settlement","population":17323,"controller":"M23 ARC","controller_id":"afc-m23-arc","sovereign":"AFC/M23","color":"#d6604d","status":"exclusive","confidence":"medium"}},{"type":"Feature","geometry":{"type":"Point","coordinates":[29.10326,-1.12058]},"properties":{"id":"cod-35MQU3476_2","name":"Sayuni","kind":"settlement","population":17131,"controller":"M23 ARC","controller_id":"afc-m23-arc","sovereign":"AFC/M23","color":"#d6604d","status":"contested","confidence":"low"}},{"type":"Feature","geometry":{"type":"Point","coordinates":[29.38759,-0.69006]},"properties":{"id":"cod-35MQV6523_1","name":"Katana 1","kind":"settlement","population":13700,"controller":"M23 ARC","controller_id":"afc-m23-arc","sovereign":"AFC/M23","color":"#d6604d","status":"dominant","confidence":"medium"}},{"type":"Feature","geometry":{"type":"Point","coordinates":[29.39689,-1.25763]},"properties":{"id":"cod-35MQU6660_1","name":"Marashi 2","kind":"settlement","population":13362,"controller":"M23 ARC","controller_id":"afc-m23-arc","sovereign":"AFC/M23","color":"#d6604d","status":"exclusive","confidence":"medium"}},{"type":"Feature","geometry":{"type":"Point","coordinates":[29.06255,-0.97571]},"properties":{"id":"cod-35MQU2992_2","name":"Mugunga","kind":"settlement","population":13309,"controller":"M23 ARC","controller_id":"afc-m23-arc","sovereign":"AFC/M23","color":"#d6604d","status":"dominant","confidence":"medium"}},{"type":"Feature","geometry":{"type":"Point","coordinates":[29.23068,-1.16577]},"properties":{"id":"cod-35MQU4871_2","name":"Bega","kind":"settlement","population":11932,"controller":"M23 ARC","controller_id":"afc-m23-arc","sovereign":"AFC/M23","color":"#d6604d","status":"dominant","confidence":"medium"}},{"type":"Feature","geometry":{"type":"Point","coordinates":[29.1207,-0.98307]},"properties":{"id":"cod-35MQU3691_1","name":"Makimbilio","kind":"settlement","population":9919,"controller":"M23 ARC","controller_id":"afc-m23-arc","sovereign":"AFC/M23","color":"#d6604d","status":"dominant","confidence":"medium"}},{"type":"Feature","geometry":{"type":"Point","coordinates":[29.6229,-0.74185]},"properties":{"id":"cod-35MQV9117_1","name":"Maendeleo","kind":"settlement","population":9845,"controller":"M23 ARC","controller_id":"afc-m23-arc","sovereign":"AFC/M23","color":"#d6604d","status":"dominant","confidence":"medium"}},{"type":"Feature","geometry":{"type":"Point","coordinates":[29.11338,-0.81143]},"properties":{"id":"cod-35MQV3509_1","name":"Lusogha 1","kind":"settlement","population":9409,"controller":"M23 ARC","controller_id":"afc-m23-arc","sovereign":"AFC/M23","color":"#d6604d","status":"dominant","confidence":"medium"}},{"type":"Feature","geometry":{"type":"Point","coordinates":[29.28705,-1.09173]},"properties":{"id":"cod-35MQU5479_1","name":"Kirumba","kind":"settlement","population":8788,"controller":"M23 ARC","controller_id":"afc-m23-arc","sovereign":"AFC/M23","color":"#d6604d","status":"dominant","confidence":"medium"}},{"type":"Feature","geometry":{"type":"Point","coordinates":[29.24916,-1.2176]},"properties":{"id":"cod-35MQU5065_1","name":"Rushege","kind":"settlement","population":8415,"controller":"M23 ARC","controller_id":"afc-m23-arc","sovereign":"AFC/M23","color":"#d6604d","status":"dominant","confidence":"medium"}},{"type":"Feature","geometry":{"type":"Point","coordinates":[28.93973,-1.02559]},"properties":{"id":"cod-35MQU1586_2","name":"Kalonge","kind":"settlement","population":8099,"controller":"M23 ARC","controller_id":"afc-m23-arc","sovereign":"AFC/M23","color":"#d6604d","status":"contested","confidence":"low"}},{"type":"Feature","geometry":{"type":"Point","coordinates":[29.25173,-1.15159]},"properties":{"id":"cod-35MQU5072_1","name":"Butare Centre","kind":"settlement","population":7726,"controller":"M23 ARC","controller_id":"afc-m23-arc","sovereign":"AFC/M23","color":"#d6604d","status":"dominant","confidence":"medium"}},{"type":"Feature","geometry":{"type":"Point","coordinates":[29.60361,-0.81231]},"properties":{"id":"cod-35MQV8906_1","name":"Nyarukwangara","kind":"settlement","population":7465,"controller":"M23 ARC","controller_id":"afc-m23-arc","sovereign":"AFC/M23","color":"#d6604d","status":"dominant","confidence":"medium"}},{"type":"Feature","geometry":{"type":"Point","coordinates":[29.21871,-1.02801]},"properties":{"id":"cod-35MQU4686_1","name":"Kishishe Centre","kind":"settlement","population":7388,"controller":"M23 ARC","controller_id":"afc-m23-arc","sovereign":"AFC/M23","color":"#d6604d","status":"dominant","confidence":"medium"}},{"type":"Feature","geometry":{"type":"Point","coordinates":[29.43948,-1.26887]},"properties":{"id":"cod-35MQU7159_1","name":"Amani","kind":"settlement","population":7208,"controller":"M23 ARC","controller_id":"afc-m23-arc","sovereign":"AFC/M23","color":"#d6604d","status":"exclusive","confidence":"medium"}},{"type":"Feature","geometry":{"type":"Point","coordinates":[29.52028,-1.25345]},"properties":{"id":"cod-35MQU8061_1","name":"Bugunamo","kind":"settlement","population":6019,"controller":"M23 ARC","controller_id":"afc-m23-arc","sovereign":"AFC/M23","color":"#d6604d","status":"exclusive","confidence":"medium"}},{"type":"Feature","geometry":{"type":"Point","coordinates":[29.13364,-1.21957]},"properties":{"id":"cod-35MQU3765_1","name":"Bukombo Muko","kind":"settlement","population":5814,"controller":"M23 ARC","controller_id":"afc-m23-arc","sovereign":"AFC/M23","color":"#d6604d","status":"contested","confidence":"low"}},{"type":"Feature","geometry":{"type":"Point","coordinates":[29.55989,-0.9219]},"properties":{"id":"cod-35MQU8598_1","name":"Pamba 2","kind":"settlement","population":5761,"controller":"M23 ARC","controller_id":"afc-m23-arc","sovereign":"AFC/M23","color":"#d6604d","status":"dominant","confidence":"medium"}},{"type":"Feature","geometry":{"type":"Point","coordinates":[29.2763,-1.20923]},"properties":{"id":"cod-35MQU5366_1","name":"Rushovu","kind":"settlement","population":5185,"controller":"M23 ARC","controller_id":"afc-m23-arc","sovereign":"AFC/M23","color":"#d6604d","status":"dominant","confidence":"medium"}},{"type":"Feature","geometry":{"type":"Point","coordinates":[29.1235,-1.08773]},"properties":{"id":"cod-35MQU3679_1","name":"Rwanguba 2","kind":"settlement","population":5120,"controller":"M23 ARC","controller_id":"afc-m23-arc","sovereign":"AFC/M23","color":"#d6604d","status":"contested","confidence":"low"}},{"type":"Feature","geometry":{"type":"Point","coordinates":[29.38331,-1.29306]},"properties":{"id":"cod-35MQU6556_1","name":"Korea 1","kind":"settlement","population":5064,"controller":"M23 ARC","controller_id":"afc-m23-arc","sovereign":"AFC/M23","color":"#d6604d","status":"exclusive","confidence":"medium"}},{"type":"Feature","geometry":{"type":"Point","coordinates":[29.4361,-1.09732]},"properties":{"id":"cod-35MQU7178_1","name":"Kibututu 2","kind":"settlement","population":5063,"controller":"M23 ARC","controller_id":"afc-m23-arc","sovereign":"AFC/M23","color":"#d6604d","status":"exclusive","confidence":"medium"}},{"type":"Feature","geometry":{"type":"Point","coordinates":[29.47805,-1.23806]},"properties":{"id":"cod-35MQU7563_1","name":"Rangira 2","kind":"settlement","population":4985,"controller":"M23 ARC","controller_id":"afc-m23-arc","sovereign":"AFC/M23","color":"#d6604d","status":"exclusive","confidence":"medium"}},{"type":"Feature","geometry":{"type":"Point","coordinates":[29.2041,-1.23675]},"properties":{"id":"cod-35MQU4562_1","name":"Mulimbi","kind":"settlement","population":4938,"controller":"M23 ARC","controller_id":"afc-m23-arc","sovereign":"AFC/M23","color":"#d6604d","status":"contested","confidence":"low"}},{"type":"Feature","geometry":{"type":"Point","coordinates":[29.09409,-1.24814]},"properties":{"id":"cod-35MQU3261_2","name":"Kizimba","kind":"settlement","population":4904,"controller":"M23 ARC","controller_id":"afc-m23-arc","sovereign":"AFC/M23","color":"#d6604d","status":"contested","confidence":"low"}},{"type":"Feature","geometry":{"type":"Point","coordinates":[29.11822,-1.05374]},"properties":{"id":"cod-35MQU3583_1","name":"Kihondo","kind":"settlement","population":4634,"controller":"M23 ARC","controller_id":"afc-m23-arc","sovereign":"AFC/M23","color":"#d6604d","status":"dominant","confidence":"medium"}},{"type":"Feature","geometry":{"type":"Point","coordinates":[29.17062,-1.2464]},"properties":{"id":"cod-35MQU4162_1","name":"Shonyi 2","kind":"settlement","population":4594,"controller":"M23 ARC","controller_id":"afc-m23-arc","sovereign":"AFC/M23","color":"#d6604d","status":"contested","confidence":"low"}},{"type":"Feature","geometry":{"type":"Point","coordinates":[29.6031,-0.57097]},"properties":{"id":"cod-35MQV8936_2","name":"Mangamanga","kind":"settlement","population":4490,"controller":"M23 ARC","controller_id":"afc-m23-arc","sovereign":"AFC/M23","color":"#d6604d","status":"dominant","confidence":"medium"}},{"type":"Feature","geometry":{"type":"Point","coordinates":[29.13591,-0.96233]},"properties":{"id":"cod-35MQU3793_1","name":"Mutanda 2","kind":"settlement","population":4486,"controller":"M23 ARC","controller_id":"afc-m23-arc","sovereign":"AFC/M23","color":"#d6604d","status":"dominant","confidence":"medium"}},{"type":"Feature","geometry":{"type":"Point","coordinates":[29.40009,-1.23972]},"properties":{"id":"cod-35MQU6762_1","name":"Kako","kind":"settlement","population":4425,"controller":"M23 ARC","controller_id":"afc-m23-arc","sovereign":"AFC/M23","color":"#d6604d","status":"exclusive","confidence":"medium"}},{"type":"Feature","geometry":{"type":"Point","coordinates":[29.20897,-1.13901]},"properties":{"id":"cod-35MQU4573_1","name":"Kajagari","kind":"settlement","population":4384,"controller":"M23 ARC","controller_id":"afc-m23-arc","sovereign":"AFC/M23","color":"#d6604d","status":"dominant","confidence":"medium"}},{"type":"Feature","geometry":{"type":"Point","coordinates":[29.4124,-1.39984]},"properties":{"id":"cod-35MQU6844_1","name":"Nyesisi","kind":"settlement","population":4194,"controller":"M23 ARC","controller_id":"afc-m23-arc","sovereign":"AFC/M23","color":"#d6604d","status":"exclusive","confidence":"medium"}},{"type":"Feature","geometry":{"type":"Point","coordinates":[29.42815,-1.04649]},"properties":{"id":"cod-35MQU7084_1","name":"Nkwenda","kind":"settlement","population":4164,"controller":"M23 ARC","controller_id":"afc-m23-arc","sovereign":"AFC/M23","color":"#d6604d","status":"exclusive","confidence":"medium"}},{"type":"Feature","geometry":{"type":"Point","coordinates":[29.47366,-1.03697]},"properties":{"id":"cod-35MQU7584_1","name":"Central","kind":"settlement","population":4068,"controller":"M23 ARC","controller_id":"afc-m23-arc","sovereign":"AFC/M23","color":"#d6604d","status":"dominant","confidence":"medium"}},{"type":"Feature","geometry":{"type":"Point","coordinates":[29.45649,-1.29425]},"properties":{"id":"cod-35MQU7356_1","name":"Amani","kind":"settlement","population":3954,"controller":"M23 ARC","controller_id":"afc-m23-arc","sovereign":"AFC/M23","color":"#d6604d","status":"exclusive","confidence":"medium"}},{"type":"Feature","geometry":{"type":"Point","coordinates":[29.12596,-0.85861]},"properties":{"id":"cod-35MQV3604_1","name":"Birundule 2","kind":"settlement","population":3942,"controller":"M23 ARC","controller_id":"afc-m23-arc","sovereign":"AFC/M23","color":"#d6604d","status":"dominant","confidence":"medium"}},{"type":"Feature","geometry":{"type":"Point","coordinates":[29.51017,-1.23887]},"properties":{"id":"cod-35MQU7962_1","name":"Rwanguba","kind":"settlement","population":3851,"controller":"M23 ARC","controller_id":"afc-m23-arc","sovereign":"AFC/M23","color":"#d6604d","status":"exclusive","confidence":"medium"}},{"type":"Feature","geometry":{"type":"Point","coordinates":[29.36858,-1.33858]},"properties":{"id":"cod-35MQU6352_1","name":"Buvunga","kind":"settlement","population":3636,"controller":"M23 ARC","controller_id":"afc-m23-arc","sovereign":"AFC/M23","color":"#d6604d","status":"exclusive","confidence":"medium"}},{"type":"Feature","geometry":{"type":"Point","coordinates":[29.06645,-0.93575]},"properties":{"id":"cod-35MQU2996_1","name":"Kyaghala","kind":"settlement","population":3512,"controller":"M23 ARC","controller_id":"afc-m23-arc","sovereign":"AFC/M23","color":"#d6604d","status":"dominant","confidence":"medium"}},{"type":"Feature","geometry":{"type":"Point","coordinates":[29.11039,-1.20659]},"properties":{"id":"cod-35MQU3565_1","name":"Kazuba","kind":"settlement","population":3382,"controller":"M23 ARC","controller_id":"afc-m23-arc","sovereign":"AFC/M23","color":"#d6604d","status":"contested","confidence":"low"}},{"type":"Feature","geometry":{"type":"Point","coordinates":[29.03554,-1.16598]},"properties":{"id":"cod-35MQU2671_1","name":"Muhongozi","kind":"settlement","population":3372,"controller":"M23 ARC","controller_id":"afc-m23-arc","sovereign":"AFC/M23","color":"#d6604d","status":"contested","confidence":"low"}},{"type":"Feature","geometry":{"type":"Point","coordinates":[29.16605,-0.98567]},"properties":{"id":"cod-35MQU4090_1","name":"Cbca","kind":"settlement","population":3270,"controller":"M23 ARC","controller_id":"afc-m23-arc","sovereign":"AFC/M23","color":"#d6604d","status":"dominant","confidence":"medium"}},{"type":"Feature","geometry":{"type":"Point","coordinates":[29.10022,-0.89398]},"properties":{"id":"cod-35MQV3301_1","name":"Mirangi","kind":"settlement","population":3146,"controller":"M23 ARC","controller_id":"afc-m23-arc","sovereign":"AFC/M23","color":"#d6604d","status":"dominant","confidence":"medium"}},{"type":"Feature","geometry":{"type":"Point","coordinates":[29.05083,-1.19201]},"properties":{"id":"cod-35MQU2967_1","name":"Murambi","kind":"settlement","population":3095,"controller":"M23 ARC","controller_id":"afc-m23-arc","sovereign":"AFC/M23","color":"#d6604d","status":"contested","confidence":"low"}},{"type":"Feature","geometry":{"type":"Point","coordinates":[29.44497,-1.33096]},"properties":{"id":"cod-35MQU7252_1","name":"Kashali","kind":"settlement","population":3007,"controller":"M23 ARC","controller_id":"afc-m23-arc","sovereign":"AFC/M23","color":"#d6604d","status":"exclusive","confidence":"medium"}},{"type":"Feature","geometry":{"type":"Point","coordinates":[29.37626,-1.31977]},"properties":{"id":"cod-35MQU6453_2","name":"Katale","kind":"settlement","population":2910,"controller":"M23 ARC","controller_id":"afc-m23-arc","sovereign":"AFC/M23","color":"#d6604d","status":"exclusive","confidence":"medium"}},{"type":"Feature","geometry":{"type":"Point","coordinates":[29.1289,-1.26674]},"properties":{"id":"cod-35MQU3659_1","name":"Bishusha","kind":"settlement","population":2878,"controller":"M23 ARC","controller_id":"afc-m23-arc","sovereign":"AFC/M23","color":"#d6604d","status":"contested","confidence":"low"}},{"type":"Feature","geometry":{"type":"Point","coordinates":[29.56518,-1.11967]},"properties":{"id":"cod-35MQU8475_3","name":"Nyamagana","kind":"settlement","population":2456,"controller":"M23 ARC","controller_id":"afc-m23-arc","sovereign":"AFC/M23","color":"#d6604d","status":"exclusive","confidence":"medium"}},{"type":"Feature","geometry":{"type":"Point","coordinates":[29.17932,-0.73168]},"properties":{"id":"cod-35MQV4219_1","name":"Kilambo","kind":"settlement","population":2437,"controller":"M23 ARC","controller_id":"afc-m23-arc","sovereign":"AFC/M23","color":"#d6604d","status":"dominant","confidence":"medium"}},{"type":"Feature","geometry":{"type":"Point","coordinates":[29.62128,-0.89137]},"properties":{"id":"cod-35MQV9100_1","name":"Muramba","kind":"settlement","population":2409,"controller":"M23 ARC","controller_id":"afc-m23-arc","sovereign":"AFC/M23","color":"#d6604d","status":"dominant","confidence":"medium"}},{"type":"Feature","geometry":{"type":"Point","coordinates":[29.42581,-1.37472]},"properties":{"id":"cod-35MQU6947_1","name":"Kanombe","kind":"settlement","population":2304,"controller":"M23 ARC","controller_id":"afc-m23-arc","sovereign":"AFC/M23","color":"#d6604d","status":"exclusive","confidence":"medium"}},{"type":"Feature","geometry":{"type":"Point","coordinates":[29.14303,-1.05189]},"properties":{"id":"cod-35MQU3883_1","name":"Munguli 1","kind":"settlement","population":2225,"controller":"M23 ARC","controller_id":"afc-m23-arc","sovereign":"AFC/M23","color":"#d6604d","status":"dominant","confidence":"medium"}},{"type":"Feature","geometry":{"type":"Point","coordinates":[29.09795,-1.36133]},"properties":{"id":"cod-35MQU3349_2","name":"Rebero","kind":"settlement","population":2196,"controller":"M23 ARC","controller_id":"afc-m23-arc","sovereign":"AFC/M23","color":"#d6604d","status":"contested","confidence":"low"}},{"type":"Feature","geometry":{"type":"Point","coordinates":[29.09368,-1.18784]},"properties":{"id":"cod-35MQU3268_1","name":"Bushobyo","kind":"settlement","population":2158,"controller":"M23 ARC","controller_id":"afc-m23-arc","sovereign":"AFC/M23","color":"#d6604d","status":"contested","confidence":"low"}},{"type":"Feature","geometry":{"type":"Point","coordinates":[29.06614,-1.10568]},"properties":{"id":"cod-35MQU2977_2","name":"Jtn","kind":"settlement","population":2127,"controller":"M23 ARC","controller_id":"afc-m23-arc","sovereign":"AFC/M23","color":"#d6604d","status":"contested","confidence":"low"}},{"type":"Feature","geometry":{"type":"Point","coordinates":[29.10277,-1.17735]},"properties":{"id":"cod-35MQU3369_3","name":"Mudugudu","kind":"settlement","population":2045,"controller":"M23 ARC","controller_id":"afc-m23-arc","sovereign":"AFC/M23","color":"#d6604d","status":"contested","confidence":"low"}},{"type":"Feature","geometry":{"type":"Point","coordinates":[29.52459,-1.03474]},"properties":{"id":"cod-35MQU8085_1","name":"Kigunga 2","kind":"settlement","population":2044,"controller":"M23 ARC","controller_id":"afc-m23-arc","sovereign":"AFC/M23","color":"#d6604d","status":"dominant","confidence":"medium"}},{"type":"Feature","geometry":{"type":"Point","coordinates":[29.28818,-1.18328]},"properties":{"id":"cod-35MQU5469_3","name":"Marangara","kind":"settlement","population":1952,"controller":"M23 ARC","controller_id":"afc-m23-arc","sovereign":"AFC/M23","color":"#d6604d","status":"dominant","confidence":"medium"}},{"type":"Feature","geometry":{"type":"Point","coordinates":[29.43756,-1.11296]},"properties":{"id":"cod-35MQU7176_1","name":"Katoro","kind":"settlement","population":1922,"controller":"M23 ARC","controller_id":"afc-m23-arc","sovereign":"AFC/M23","color":"#d6604d","status":"exclusive","confidence":"medium"}},{"type":"Feature","geometry":{"type":"Point","coordinates":[29.1513,-1.20933]},"properties":{"id":"cod-35MQU4065_2","name":"Mashiga","kind":"settlement","population":1912,"controller":"M23 ARC","controller_id":"afc-m23-arc","sovereign":"AFC/M23","color":"#d6604d","status":"contested","confidence":"low"}},{"type":"Feature","geometry":{"type":"Point","coordinates":[29.2636,-1.12359]},"properties":{"id":"cod-35MQU5175_1","name":"Buhambo","kind":"settlement","population":1782,"controller":"M23 ARC","controller_id":"afc-m23-arc","sovereign":"AFC/M23","color":"#d6604d","status":"dominant","confidence":"medium"}},{"type":"Feature","geometry":{"type":"Point","coordinates":[29.17372,-1.26698]},"properties":{"id":"cod-35MQU4259_2","name":"Luya","kind":"settlement","population":1703,"controller":"M23 ARC","controller_id":"afc-m23-arc","sovereign":"AFC/M23","color":"#d6604d","status":"contested","confidence":"low"}},{"type":"Feature","geometry":{"type":"Point","coordinates":[29.46113,-1.34059]},"properties":{"id":"cod-35MQU7351_1","name":"Kanombe","kind":"settlement","population":1633,"controller":"M23 ARC","controller_id":"afc-m23-arc","sovereign":"AFC/M23","color":"#d6604d","status":"exclusive","confidence":"medium"}},{"type":"Feature","geometry":{"type":"Point","coordinates":[29.47195,-1.31654]},"properties":{"id":"cod-35MQU7554_1","name":"Amani","kind":"settlement","population":1610,"controller":"M23 ARC","controller_id":"afc-m23-arc","sovereign":"AFC/M23","color":"#d6604d","status":"exclusive","confidence":"medium"}},{"type":"Feature","geometry":{"type":"Point","coordinates":[29.26,-1.20286]},"properties":{"id":"cod-35MQU5166_1","name":"Kihonga","kind":"settlement","population":1599,"controller":"M23 ARC","controller_id":"afc-m23-arc","sovereign":"AFC/M23","color":"#d6604d","status":"dominant","confidence":"medium"}},{"type":"Feature","geometry":{"type":"Point","coordinates":[29.52777,-1.30144]},"properties":{"id":"cod-35MQU8155_1","name":"Bugunamo","kind":"settlement","population":1585,"controller":"M23 ARC","controller_id":"afc-m23-arc","sovereign":"AFC/M23","color":"#d6604d","status":"exclusive","confidence":"medium"}},{"type":"Feature","geometry":{"type":"Point","coordinates":[29.14425,-1.27101]},"properties":{"id":"cod-35MQU3859_1","name":"Nkangi","kind":"settlement","population":1541,"controller":"M23 ARC","controller_id":"afc-m23-arc","sovereign":"AFC/M23","color":"#d6604d","status":"contested","confidence":"low"}},{"type":"Feature","geometry":{"type":"Point","coordinates":[29.08696,-1.34986]},"properties":{"id":"cod-35MQU3250_1","name":"Rebero","kind":"settlement","population":1504,"controller":"M23 ARC","controller_id":"afc-m23-arc","sovereign":"AFC/M23","color":"#d6604d","status":"contested","confidence":"low"}},{"type":"Feature","geometry":{"type":"Point","coordinates":[29.2091,-1.19278]},"properties":{"id":"cod-35MQU4667_1","name":"Mantu","kind":"settlement","population":1498,"controller":"M23 ARC","controller_id":"afc-m23-arc","sovereign":"AFC/M23","color":"#d6604d","status":"dominant","confidence":"medium"}},{"type":"Feature","geometry":{"type":"Point","coordinates":[29.05439,-1.14889]},"properties":{"id":"cod-35MQU2872_3","name":"Bumbasha","kind":"settlement","population":1440,"controller":"M23 ARC","controller_id":"afc-m23-arc","sovereign":"AFC/M23","color":"#d6604d","status":"contested","confidence":"low"}},{"type":"Feature","geometry":{"type":"Point","coordinates":[29.13541,-0.75815]},"properties":{"id":"cod-35MQV3716_1","name":"Bulindi","kind":"settlement","population":1428,"controller":"M23 ARC","controller_id":"afc-m23-arc","sovereign":"AFC/M23","color":"#d6604d","status":"dominant","confidence":"medium"}},{"type":"Feature","geometry":{"type":"Point","coordinates":[29.1958,-1.25227]},"properties":{"id":"cod-35MQU4461_1","name":"Rusekera","kind":"settlement","population":1425,"controller":"M23 ARC","controller_id":"afc-m23-arc","sovereign":"AFC/M23","color":"#d6604d","status":"contested","confidence":"low"}},{"type":"Feature","geometry":{"type":"Point","coordinates":[29.07373,-1.17137]},"properties":{"id":"cod-35MQU3070_1","name":"Bunkuba","kind":"settlement","population":1420,"controller":"M23 ARC","controller_id":"afc-m23-arc","sovereign":"AFC/M23","color":"#d6604d","status":"contested","confidence":"low"}},{"type":"Feature","geometry":{"type":"Point","coordinates":[29.54067,-0.99221]},"properties":{"id":"cod-35MQU8290_1","name":"Central","kind":"settlement","population":1395,"controller":"M23 ARC","controller_id":"afc-m23-arc","sovereign":"AFC/M23","color":"#d6604d","status":"dominant","confidence":"medium"}},{"type":"Feature","geometry":{"type":"Point","coordinates":[29.22024,-1.22614]},"properties":{"id":"cod-35MQU4764_1","name":"Kanaba","kind":"settlement","population":1367,"controller":"M23 ARC","controller_id":"afc-m23-arc","sovereign":"AFC/M23","color":"#d6604d","status":"dominant","confidence":"medium"}},{"type":"Feature","geometry":{"type":"Point","coordinates":[29.19221,-0.98206]},"properties":{"id":"cod-35MQU4391_1","name":"Kirima","kind":"settlement","population":1355,"controller":"M23 ARC","controller_id":"afc-m23-arc","sovereign":"AFC/M23","color":"#d6604d","status":"dominant","confidence":"medium"}},{"type":"Feature","geometry":{"type":"Point","coordinates":[29.50272,-1.30843]},"properties":{"id":"cod-35MQU7855_1","name":"Bugunamo","kind":"settlement","population":1355,"controller":"M23 ARC","controller_id":"afc-m23-arc","sovereign":"AFC/M23","color":"#d6604d","status":"exclusive","confidence":"medium"}},{"type":"Feature","geometry":{"type":"Point","coordinates":[29.54105,-1.33302]},"properties":{"id":"cod-35MQU8252_2","name":"Bugunamo","kind":"settlement","population":1352,"controller":"M23 ARC","controller_id":"afc-m23-arc","sovereign":"AFC/M23","color":"#d6604d","status":"exclusive","confidence":"medium"}},{"type":"Feature","geometry":{"type":"Point","coordinates":[29.28932,-0.78827]},"properties":{"id":"cod-35MQV5412_1","name":"Kinyamuyagha","kind":"settlement","population":1338,"controller":"M23 ARC","controller_id":"afc-m23-arc","sovereign":"AFC/M23","color":"#d6604d","status":"dominant","confidence":"medium"}},{"type":"Feature","geometry":{"type":"Point","coordinates":[29.54446,-1.13339]},"properties":{"id":"cod-35MQU8274_1","name":"Kisorora","kind":"settlement","population":1278,"controller":"M23 ARC","controller_id":"afc-m23-arc","sovereign":"AFC/M23","color":"#d6604d","status":"exclusive","confidence":"medium"}},{"type":"Feature","geometry":{"type":"Point","coordinates":[29.16428,-0.74223]},"properties":{"id":"cod-35MQV4017_1","name":"Butalongola","kind":"settlement","population":1270,"controller":"M23 ARC","controller_id":"afc-m23-arc","sovereign":"AFC/M23","color":"#d6604d","status":"dominant","confidence":"medium"}},{"type":"Feature","geometry":{"type":"Point","coordinates":[29.16788,-1.28394]},"properties":{"id":"cod-35MQU4158_2","name":"Chumba","kind":"settlement","population":1239,"controller":"M23 ARC","controller_id":"afc-m23-arc","sovereign":"AFC/M23","color":"#d6604d","status":"contested","confidence":"low"}},{"type":"Feature","geometry":{"type":"Point","coordinates":[29.51228,-1.29778]},"properties":{"id":"cod-35MQU7955_3","name":"Bugunamo","kind":"settlement","population":1217,"controller":"M23 ARC","controller_id":"afc-m23-arc","sovereign":"AFC/M23","color":"#d6604d","status":"exclusive","confidence":"medium"}},{"type":"Feature","geometry":{"type":"Point","coordinates":[29.49227,-1.30185]},"properties":{"id":"cod-35MQU7756_1","name":"Bugunamo","kind":"settlement","population":1163,"controller":"M23 ARC","controller_id":"afc-m23-arc","sovereign":"AFC/M23","color":"#d6604d","status":"exclusive","confidence":"medium"}},{"type":"Feature","geometry":{"type":"Point","coordinates":[29.47741,-1.27829]},"properties":{"id":"cod-35MQU7558_1","name":"Kibanda","kind":"settlement","population":1161,"controller":"M23 ARC","controller_id":"afc-m23-arc","sovereign":"AFC/M23","color":"#d6604d","status":"exclusive","confidence":"medium"}},{"type":"Feature","geometry":{"type":"Point","coordinates":[29.43558,-1.12373]},"properties":{"id":"cod-35MQU7175_1","name":"Katoro","kind":"settlement","population":1145,"controller":"M23 ARC","controller_id":"afc-m23-arc","sovereign":"AFC/M23","color":"#d6604d","status":"exclusive","confidence":"medium"}},{"type":"Feature","geometry":{"type":"Point","coordinates":[29.13884,-0.97314]},"properties":{"id":"cod-35MQU3892_3","name":"Somikivu","kind":"settlement","population":1084,"controller":"M23 ARC","controller_id":"afc-m23-arc","sovereign":"AFC/M23","color":"#d6604d","status":"dominant","confidence":"medium"}},{"type":"Feature","geometry":{"type":"Point","coordinates":[29.29992,-1.17666]},"properties":{"id":"cod-35MQU5569_2","name":"Runzenze","kind":"settlement","population":1054,"controller":"M23 ARC","controller_id":"afc-m23-arc","sovereign":"AFC/M23","color":"#d6604d","status":"dominant","confidence":"medium"}},{"type":"Feature","geometry":{"type":"Point","coordinates":[29.19161,-0.94951]},"properties":{"id":"cod-35MQU4395_3","name":"Kibingu","kind":"settlement","population":1049,"controller":"M23 ARC","controller_id":"afc-m23-arc","sovereign":"AFC/M23","color":"#d6604d","status":"dominant","confidence":"medium"}},{"type":"Feature","geometry":{"type":"Point","coordinates":[29.15423,-1.13137]},"properties":{"id":"cod-35MQU3974_2","name":"Munema","kind":"settlement","population":1031,"controller":"M23 ARC","controller_id":"afc-m23-arc","sovereign":"AFC/M23","color":"#d6604d","status":"contested","confidence":"low"}},{"type":"Feature","geometry":{"type":"Point","coordinates":[29.46,-1.33041]},"properties":{"id":"cod-35MQU7452_1","name":"Kanombe","kind":"settlement","population":1018,"controller":"M23 ARC","controller_id":"afc-m23-arc","sovereign":"AFC/M23","color":"#d6604d","status":"exclusive","confidence":"medium"}},{"type":"Feature","geometry":{"type":"Point","coordinates":[29.13413,-1.15497]},"properties":{"id":"cod-35MQU3772_2","name":"Mashango","kind":"settlement","population":1008,"controller":"M23 ARC","controller_id":"afc-m23-arc","sovereign":"AFC/M23","color":"#d6604d","status":"contested","confidence":"low"}},{"type":"Feature","geometry":{"type":"Point","coordinates":[29.45124,-1.17408]},"properties":{"id":"cod-35MQU7170_1-uAAh41pWMti","name":"Murambi","kind":"neighbourhood","population":26875,"controller":"M23 police","controller_id":"afc-m23-police","sovereign":"AFC/M23","color":"#f4a582","status":"exclusive","confidence":"high"}},{"type":"Feature","geometry":{"type":"Point","coordinates":[29.43731,-1.146]},"properties":{"id":"cod-35MQU7170_1-E0vsj3nbqCy","name":"Buturande","kind":"neighbourhood","population":25122,"controller":"M23 police","controller_id":"afc-m23-police","sovereign":"AFC/M23","color":"#f4a582","status":"exclusive","confidence":"high"}},{"type":"Feature","geometry":{"type":"Point","coordinates":[29.44575,-1.19025]},"properties":{"id":"cod-35MQU7170_1-e1hI6GQv1yX","name":"Rutshuru","kind":"neighbourhood","population":22779,"controller":"M23 police","controller_id":"afc-m23-police","sovereign":"AFC/M23","color":"#f4a582","status":"exclusive","confidence":"high"}},{"type":"Feature","geometry":{"type":"Point","coordinates":[29.42939,-1.1596]},"properties":{"id":"cod-35MQU7170_1-QcEJDHCKOUd","name":"Mapendo","kind":"neighbourhood","population":19944,"controller":"M23 police","controller_id":"afc-m23-police","sovereign":"AFC/M23","color":"#f4a582","status":"exclusive","confidence":"high"}},{"type":"Feature","geometry":{"type":"Point","coordinates":[29.42871,-1.14874]},"properties":{"id":"cod-35MQU7170_1-fRaY5sx59Qz","name":"Kiwanja","kind":"neighbourhood","population":16719,"controller":"M23 police","controller_id":"afc-m23-police","sovereign":"AFC/M23","color":"#f4a582","status":"exclusive","confidence":"high"}},{"type":"Feature","geometry":{"type":"Point","coordinates":[29.42384,-1.15239]},"properties":{"id":"cod-35MQU7170_1-xDmjUd0mH8O","name":"Umoja","kind":"neighbourhood","population":15400,"controller":"M23 police","controller_id":"afc-m23-police","sovereign":"AFC/M23","color":"#f4a582","status":"exclusive","confidence":"high"}},{"type":"Feature","geometry":{"type":"Point","coordinates":[29.43797,-1.15387]},"properties":{"id":"cod-35MQU7170_1-JZYAtYMIQ5b","name":"Mabungo","kind":"neighbourhood","population":6906,"controller":"M23 police","controller_id":"afc-m23-police","sovereign":"AFC/M23","color":"#f4a582","status":"exclusive","confidence":"high"}}]}